CCSDS_OMM_VERS = 2.0
CREATION_DATE  = 
ORIGINATOR     = 

OBJECT_NAME    = SL-14 R/B
OBJECT_ID      = 1986-046B
CENTER_NAME    = EARTH
REF_FRAME      = TEME
TIME_SYSTEM    = UTC
MEAN_ELEMENT_THEORY = SGP/SGP4

EPOCH          = 2026-02-27T02:20:53.158272
MEAN_MOTION    = 14.85578294
ECCENTRICITY   = .00215452
INCLINATION    = 82.4787
RA_OF_ASC_NODE = 90.1928
ARG_OF_PERICENTER = 262.5385
MEAN_ANOMALY   = 97.3384

EPHEMERIS_TYPE = 0
CLASSIFICATION_TYPE = U
NORAD_CAT_ID   = 16792
ELEMENT_SET_NO = 999
REV_AT_EPOCH   = 12483
BSTAR          = .49343642E-4
MEAN_MOTION_DOT = .452E-5
MEAN_MOTION_DDOT = 0

CCSDS_OMM_VERS = 2.0
CREATION_DATE  = 
ORIGINATOR     = 

OBJECT_NAME    = SL-14 R/B
OBJECT_ID      = 1986-055B
CENTER_NAME    = EARTH
REF_FRAME      = TEME
TIME_SYSTEM    = UTC
MEAN_ELEMENT_THEORY = SGP/SGP4

EPOCH          = 2026-02-27T05:16:41.393856
MEAN_MOTION    = 14.85631374
ECCENTRICITY   = .00191041
INCLINATION    = 82.5221
RA_OF_ASC_NODE = 136.5136
ARG_OF_PERICENTER = 11.6345
MEAN_ANOMALY   = 3.8413

EPHEMERIS_TYPE = 0
CLASSIFICATION_TYPE = U
NORAD_CAT_ID   = 16882
ELEMENT_SET_NO = 999
REV_AT_EPOCH   = 11781
BSTAR          = .54393992E-4
MEAN_MOTION_DOT = .497E-5
MEAN_MOTION_DDOT = 0

CCSDS_OMM_VERS = 2.0
CREATION_DATE  = 
ORIGINATOR     = 

OBJECT_NAME    = AJISAI (EGS)
OBJECT_ID      = 1986-061A
CENTER_NAME    = EARTH
REF_FRAME      = TEME
TIME_SYSTEM    = UTC
MEAN_ELEMENT_THEORY = SGP/SGP4

EPOCH          = 2026-02-27T06:29:34.593792
MEAN_MOTION    = 12.44515453
ECCENTRICITY   = .00112444
INCLINATION    = 50.0083
RA_OF_ASC_NODE = 125.3876
ARG_OF_PERICENTER = 260.1819
MEAN_ANOMALY   = 146.5038

EPHEMERIS_TYPE = 0
CLASSIFICATION_TYPE = U
NORAD_CAT_ID   = 16908
ELEMENT_SET_NO = 999
REV_AT_EPOCH   = 46670
BSTAR          = -.69079878E-4
MEAN_MOTION_DOT = -.107E-5
MEAN_MOTION_DDOT = 0

CCSDS_OMM_VERS = 2.0
CREATION_DATE  = 
ORIGINATOR     = 

OBJECT_NAME    = SL-14 R/B
OBJECT_ID      = 1987-024B
CENTER_NAME    = EARTH
REF_FRAME      = TEME
TIME_SYSTEM    = UTC
MEAN_ELEMENT_THEORY = SGP/SGP4

EPOCH          = 2026-02-27T04:51:30.554208
MEAN_MOTION    = 14.86120712
ECCENTRICITY   = .00167937
INCLINATION    = 82.5259
RA_OF_ASC_NODE = 102.6228
ARG_OF_PERICENTER = 297.8201
MEAN_ANOMALY   = 62.1313

EPHEMERIS_TYPE = 0
CLASSIFICATION_TYPE = U
NORAD_CAT_ID   = 17567
ELEMENT_SET_NO = 999
REV_AT_EPOCH   = 8657
BSTAR          = .49149756E-4
MEAN_MOTION_DOT = .456E-5
MEAN_MOTION_DDOT = 0

CCSDS_OMM_VERS = 2.0
CREATION_DATE  = 
ORIGINATOR     = 

OBJECT_NAME    = COSMOS 1833
OBJECT_ID      = 1987-027A
CENTER_NAME    = EARTH
REF_FRAME      = TEME
TIME_SYSTEM    = UTC
MEAN_ELEMENT_THEORY = SGP/SGP4

EPOCH          = 2026-02-27T05:48:14.971680
MEAN_MOTION    = 14.13056724
ECCENTRICITY   = .00246918
INCLINATION    = 70.9234
RA_OF_ASC_NODE = 347.9753
ARG_OF_PERICENTER = 228.8854
MEAN_ANOMALY   = 131.0135

EPHEMERIS_TYPE = 0
CLASSIFICATION_TYPE = U
NORAD_CAT_ID   = 17589
ELEMENT_SET_NO = 999
REV_AT_EPOCH   = 884
BSTAR          = -.36820912E-4
MEAN_MOTION_DOT = -.117E-5
MEAN_MOTION_DDOT = 0

CCSDS_OMM_VERS = 2.0
CREATION_DATE  = 
ORIGINATOR     = 

OBJECT_NAME    = SL-16 R/B
OBJECT_ID      = 1987-027B
CENTER_NAME    = EARTH
REF_FRAME      = TEME
TIME_SYSTEM    = UTC
MEAN_ELEMENT_THEORY = SGP/SGP4

EPOCH          = 2026-02-27T02:30:38.726496
MEAN_MOTION    = 14.17167219
ECCENTRICITY   = .00039523
INCLINATION    = 71.0028
RA_OF_ASC_NODE = 298.8017
ARG_OF_PERICENTER = 163.7619
MEAN_ANOMALY   = 196.3633

EPHEMERIS_TYPE = 0
CLASSIFICATION_TYPE = U
NORAD_CAT_ID   = 17590
ELEMENT_SET_NO = 999
REV_AT_EPOCH   = 1384
BSTAR          = -.15031265E-4
MEAN_MOTION_DOT = -.78E-6
MEAN_MOTION_DDOT = 0

CCSDS_OMM_VERS = 2.0
CREATION_DATE  = 
ORIGINATOR     = 

OBJECT_NAME    = SL-14 R/B
OBJECT_ID      = 1987-038B
CENTER_NAME    = EARTH
REF_FRAME      = TEME
TIME_SYSTEM    = UTC
MEAN_ELEMENT_THEORY = SGP/SGP4

EPOCH          = 2026-02-27T04:36:29.592288
MEAN_MOTION    = 14.85358417
ECCENTRICITY   = .00187466
INCLINATION    = 82.5021
RA_OF_ASC_NODE = 306.6966
ARG_OF_PERICENTER = 194.9258
MEAN_ANOMALY   = 165.1408

EPHEMERIS_TYPE = 0
CLASSIFICATION_TYPE = U
NORAD_CAT_ID   = 17912
ELEMENT_SET_NO = 999
REV_AT_EPOCH   = 7767
BSTAR          = .49682418E-4
MEAN_MOTION_DOT = .453E-5
MEAN_MOTION_DDOT = 0

CCSDS_OMM_VERS = 2.0
CREATION_DATE  = 
ORIGINATOR     = 

OBJECT_NAME    = COSMOS 1844
OBJECT_ID      = 1987-041A
CENTER_NAME    = EARTH
REF_FRAME      = TEME
TIME_SYSTEM    = UTC
MEAN_ELEMENT_THEORY = SGP/SGP4

EPOCH          = 2026-02-27T06:54:51.943680
MEAN_MOTION    = 14.14552993
ECCENTRICITY   = .0029474
INCLINATION    = 70.8989
RA_OF_ASC_NODE = 56.1150
ARG_OF_PERICENTER = 33.8543
MEAN_ANOMALY   = 326.4452

EPHEMERIS_TYPE = 0
CLASSIFICATION_TYPE = U
NORAD_CAT_ID   = 17973
ELEMENT_SET_NO = 999
REV_AT_EPOCH   = 211
BSTAR          = .28993586E-4
MEAN_MOTION_DOT = .8E-7
MEAN_MOTION_DDOT = 0

CCSDS_OMM_VERS = 2.0
CREATION_DATE  = 
ORIGINATOR     = 

OBJECT_NAME    = SL-14 R/B
OBJECT_ID      = 1987-055B
CENTER_NAME    = EARTH
REF_FRAME      = TEME
TIME_SYSTEM    = UTC
MEAN_ELEMENT_THEORY = SGP/SGP4

EPOCH          = 2026-02-27T05:42:56.855520
MEAN_MOTION    = 14.85614318
ECCENTRICITY   = .00219379
INCLINATION    = 82.5023
RA_OF_ASC_NODE = 358.8786
ARG_OF_PERICENTER = 50.9436
MEAN_ANOMALY   = 309.3727

EPHEMERIS_TYPE = 0
CLASSIFICATION_TYPE = U
NORAD_CAT_ID   = 18153
ELEMENT_SET_NO = 999
REV_AT_EPOCH   = 6838
BSTAR          = .68911671E-4
MEAN_MOTION_DOT = .623E-5
MEAN_MOTION_DDOT = 0

CCSDS_OMM_VERS = 2.0
CREATION_DATE  = 
ORIGINATOR     = 

OBJECT_NAME    = COSMOS 1867
OBJECT_ID      = 1987-060A
CENTER_NAME    = EARTH
REF_FRAME      = TEME
TIME_SYSTEM    = UTC
MEAN_ELEMENT_THEORY = SGP/SGP4

EPOCH          = 2026-02-27T04:07:07.598208
MEAN_MOTION    = 14.31501124
ECCENTRICITY   = .00143214
INCLINATION    = 65.0124
RA_OF_ASC_NODE = 336.1601
ARG_OF_PERICENTER = 277.9763
MEAN_ANOMALY   = 81.9696

EPHEMERIS_TYPE = 0
CLASSIFICATION_TYPE = U
NORAD_CAT_ID   = 18187
ELEMENT_SET_NO = 999
REV_AT_EPOCH   = 1843
BSTAR          = .26718416E-4
MEAN_MOTION_DOT = -.29E-6
MEAN_MOTION_DDOT = 0

CCSDS_OMM_VERS = 2.0
CREATION_DATE  = 
ORIGINATOR     = 

OBJECT_NAME    = SL-14 R/B
OBJECT_ID      = 1988-001B
CENTER_NAME    = EARTH
REF_FRAME      = TEME
TIME_SYSTEM    = UTC
MEAN_ELEMENT_THEORY = SGP/SGP4

EPOCH          = 2026-02-26T11:48:09.282240
MEAN_MOTION    = 14.85511371
ECCENTRICITY   = .0016595
INCLINATION    = 82.5133
RA_OF_ASC_NODE = 205.8905
ARG_OF_PERICENTER = 275.9511
MEAN_ANOMALY   = 83.9813

EPHEMERIS_TYPE = 0
CLASSIFICATION_TYPE = U
NORAD_CAT_ID   = 18749
ELEMENT_SET_NO = 999
REV_AT_EPOCH   = 4036
BSTAR          = .6211E-4
MEAN_MOTION_DOT = .561E-5
MEAN_MOTION_DDOT = 0

