SL-14 R/B               
1 16792U 86046B   26058.09783748  .00000452  00000+0  49344-4 0  9994
2 16792  82.4787  90.1928 0021545 262.5385  97.3384 14.85578294124835
SL-14 R/B               
1 16882U 86055B   26058.21992354  .00000497  00000+0  54394-4 0  9993
2 16882  82.5221 136.5136 0019104  11.6345   3.8413 14.85631374117816
AJISAI (EGS)            
1 16908U 86061A   26058.27053928 -.00000107  00000+0 -69080-4 0  9998
2 16908  50.0083 125.3876 0011244 260.1819 146.5038 12.44515453466707
SL-14 R/B               
1 17567U 87024B   26058.20243697  .00000456  00000+0  49150-4 0  9998
2 17567  82.5259 102.6228 0016793 297.8201  62.1313 14.86120712 86579
COSMOS 1833             
1 17589U 87027A   26058.24183995 -.00000117  00000+0 -36821-4 0  9990
2 17589  70.9234 347.9753 0024691 228.8854 131.0135 14.13056724  8841
SL-16 R/B               
1 17590U 87027B   26058.10461489 -.00000078  00000+0 -15031-4 0  9990
2 17590  71.0028 298.8017 0003952 163.7619 196.3633 14.17167219 13845
SL-14 R/B               
1 17912U 87038B   26058.19200917  .00000453  00000+0  49682-4 0  9990
2 17912  82.5021 306.6966 0018746 194.9258 165.1408 14.85358417 77678
COSMOS 1844             
1 17973U 87041A   26058.28810120  .00000008  00000+0  28994-4 0  9993
2 17973  70.8989  56.1150 0029474  33.8543 326.4452 14.14552993  2113
SL-14 R/B               
1 18153U 87055B   26058.23815805  .00000623  00000+0  68912-4 0  9996
2 18153  82.5023 358.8786 0021937  50.9436 309.3727 14.85614318 68381
COSMOS 1867             
1 18187U 87060A   26058.17161572 -.00000029  00000+0  26718-4 0  9996
2 18187  65.0124 336.1601 0014321 277.9763  81.9696 14.31501124 18434
SL-14 R/B               
1 18749U 88001B   26057.49177410  .00000561  00000+0  62110-4 0  9994
2 18749  82.5133 205.8905 0016595 275.9511  83.9813 14.85511371 40369
